IDEFIX & ARIANE 42P R/B 
1 27422U 02021B   26048.42872564  .00000287  00000+0  12576-3 0  9990
2 27422  98.5852 347.2796 0010665 245.7547 114.2522 14.31011159241129
AQUA                    
1 27424U 02022A   26048.50347729  .00001093  00000+0  22819-3 0  9999
2 27424  98.4138  15.5068 0001196  47.8453  62.6382 14.61925457265786
CZ-4B R/B               
1 27432U 02024C   26048.12864949  .00000055  00000+0  51120-4 0  9991
2 27432  98.8887 101.6344 0051191  81.7732 304.3366 14.14543800226333
MIDORI II (ADEOS-II)    
1 27597U 02056A   26048.50220767  .00000307  00000+0  13869-3 0  9991
2 27597  98.7734   6.8451 0002148  70.2359 289.9054 14.29269681207414
H-2A R/B                
1 27601U 02056E   26048.47836745  .00000285  00000+0  11479-3 0  9992
2 27601  98.3167   9.6181 0069287 221.1363 248.2322 14.33746352211215
CZ-4B R/B               
1 28059U 03049C   26048.50950703  .00000470  00000+0  11960-3 0  9999
2 28059  98.6858  42.6261 0047096 294.0274  65.5997 14.54998324183669
CZ-2C R/B               
1 28222U 04012C   26048.06093692  .00056674  00000+0  64220-3 0  9992
2 28222  97.7283 111.4359 0015151  30.0420 330.1703 15.62085418201055
SL-16 R/B               
1 28353U 04021B   26048.09181256  .00000344  00000+0  20368-3 0  9992
2 28353  70.9989 275.7212 0003221  59.4851 300.6589 14.14594858119923
CZ-4B R/B               
1 28415U 04035C   26048.09603183  .00009466  00000+0  33647-3 0  9992
2 28415  97.3529  82.5885 0033517  44.3625 316.0291 15.28673871176763
CZ-2C R/B               
1 28480U 04046B   26048.36138899  .00000109  00000+0  55981-4 0  9994
2 28480  98.1995 324.6086 0138634 214.6064 144.6037 14.26984754105609
ARIANE 5 R/B            
1 28499U 04049H   26048.42189913  .00000918  00000+0  10731-3 0  9998
2 28499  98.2593 216.1250 0085252  57.3020 303.6378 14.85225370142785
CZ-2D R/B               
1 28738U 05024B   26048.49286343  .00040594  00000+0  53451-3 0  9990
2 28738  97.3605  62.9275 0007674  94.7551 265.4581 15.58313966136633
