CCSDS_OMM_VERS = 2.0
CREATION_DATE  = 
ORIGINATOR     = 

OBJECT_NAME    = IDEFIX & ARIANE 42P R/B
OBJECT_ID      = 2002-021B
CENTER_NAME    = EARTH
REF_FRAME      = TEME
TIME_SYSTEM    = UTC
MEAN_ELEMENT_THEORY = SGP/SGP4

EPOCH          = 2026-02-17T10:17:21.895296
MEAN_MOTION    = 14.31011159
ECCENTRICITY   = .0010665
INCLINATION    = 98.5852
RA_OF_ASC_NODE = 347.2796
ARG_OF_PERICENTER = 245.7547
MEAN_ANOMALY   = 114.2522

EPHEMERIS_TYPE = 0
CLASSIFICATION_TYPE = U
NORAD_CAT_ID   = 27422
ELEMENT_SET_NO = 999
REV_AT_EPOCH   = 24112
BSTAR          = .12576E-3
MEAN_MOTION_DOT = .287E-5
MEAN_MOTION_DDOT = 0

CCSDS_OMM_VERS = 2.0
CREATION_DATE  = 
ORIGINATOR     = 

OBJECT_NAME    = AQUA
OBJECT_ID      = 2002-022A
CENTER_NAME    = EARTH
REF_FRAME      = TEME
TIME_SYSTEM    = UTC
MEAN_ELEMENT_THEORY = SGP/SGP4

EPOCH          = 2026-02-17T12:05:00.437856
MEAN_MOTION    = 14.61925457
ECCENTRICITY   = .0001196
INCLINATION    = 98.4138
RA_OF_ASC_NODE = 15.5068
ARG_OF_PERICENTER = 47.8453
MEAN_ANOMALY   = 62.6382

EPHEMERIS_TYPE = 0
CLASSIFICATION_TYPE = U
NORAD_CAT_ID   = 27424
ELEMENT_SET_NO = 999
REV_AT_EPOCH   = 26578
BSTAR          = .22819E-3
MEAN_MOTION_DOT = .1093E-4
MEAN_MOTION_DDOT = 0

CCSDS_OMM_VERS = 2.0
CREATION_DATE  = 
ORIGINATOR     = 

OBJECT_NAME    = CZ-4B R/B
OBJECT_ID      = 2002-024C
CENTER_NAME    = EARTH
REF_FRAME      = TEME
TIME_SYSTEM    = UTC
MEAN_ELEMENT_THEORY = SGP/SGP4

EPOCH          = 2026-02-17T03:05:15.315936
MEAN_MOTION    = 14.14543800
ECCENTRICITY   = .00511911
INCLINATION    = 98.8887
RA_OF_ASC_NODE = 101.6344
ARG_OF_PERICENTER = 81.7732
MEAN_ANOMALY   = 304.3366

EPHEMERIS_TYPE = 0
CLASSIFICATION_TYPE = U
NORAD_CAT_ID   = 27432
ELEMENT_SET_NO = 999
REV_AT_EPOCH   = 22633
BSTAR          = .51120256E-4
MEAN_MOTION_DOT = .55E-6
MEAN_MOTION_DDOT = 0

CCSDS_OMM_VERS = 2.0
CREATION_DATE  = 
ORIGINATOR     = 

OBJECT_NAME    = MIDORI II (ADEOS-II)
OBJECT_ID      = 2002-056A
CENTER_NAME    = EARTH
REF_FRAME      = TEME
TIME_SYSTEM    = UTC
MEAN_ELEMENT_THEORY = SGP/SGP4

EPOCH          = 2026-02-17T12:03:10.742688
MEAN_MOTION    = 14.29269681
ECCENTRICITY   = .0002148
INCLINATION    = 98.7734
RA_OF_ASC_NODE = 6.8451
ARG_OF_PERICENTER = 70.2359
MEAN_ANOMALY   = 289.9054

EPHEMERIS_TYPE = 0
CLASSIFICATION_TYPE = U
NORAD_CAT_ID   = 27597
ELEMENT_SET_NO = 999
REV_AT_EPOCH   = 20741
BSTAR          = .13869E-3
MEAN_MOTION_DOT = .307E-5
MEAN_MOTION_DDOT = 0

CCSDS_OMM_VERS = 2.0
CREATION_DATE  = 
ORIGINATOR     = 

OBJECT_NAME    = H-2A R/B
OBJECT_ID      = 2002-056E
CENTER_NAME    = EARTH
REF_FRAME      = TEME
TIME_SYSTEM    = UTC
MEAN_ELEMENT_THEORY = SGP/SGP4

EPOCH          = 2026-02-17T11:28:50.947680
MEAN_MOTION    = 14.33746352
ECCENTRICITY   = .0069287
INCLINATION    = 98.3167
RA_OF_ASC_NODE = 9.6181
ARG_OF_PERICENTER = 221.1363
MEAN_ANOMALY   = 248.2322

EPHEMERIS_TYPE = 0
CLASSIFICATION_TYPE = U
NORAD_CAT_ID   = 27601
ELEMENT_SET_NO = 999
REV_AT_EPOCH   = 21121
BSTAR          = .11479E-3
MEAN_MOTION_DOT = .285E-5
MEAN_MOTION_DDOT = 0

CCSDS_OMM_VERS = 2.0
CREATION_DATE  = 
ORIGINATOR     = 

OBJECT_NAME    = CZ-4B R/B
OBJECT_ID      = 2003-049C
CENTER_NAME    = EARTH
REF_FRAME      = TEME
TIME_SYSTEM    = UTC
MEAN_ELEMENT_THEORY = SGP/SGP4

EPOCH          = 2026-02-17T12:13:41.407392
MEAN_MOTION    = 14.54998324
ECCENTRICITY   = .0047096
INCLINATION    = 98.6858
RA_OF_ASC_NODE = 42.6261
ARG_OF_PERICENTER = 294.0274
MEAN_ANOMALY   = 65.5997

EPHEMERIS_TYPE = 0
CLASSIFICATION_TYPE = U
NORAD_CAT_ID   = 28059
ELEMENT_SET_NO = 999
REV_AT_EPOCH   = 18366
BSTAR          = .1196E-3
MEAN_MOTION_DOT = .47E-5
MEAN_MOTION_DDOT = 0

CCSDS_OMM_VERS = 2.0
CREATION_DATE  = 
ORIGINATOR     = 

OBJECT_NAME    = CZ-2C R/B
OBJECT_ID      = 2004-012C
CENTER_NAME    = EARTH
REF_FRAME      = TEME
TIME_SYSTEM    = UTC
MEAN_ELEMENT_THEORY = SGP/SGP4

EPOCH          = 2026-02-17T01:27:44.949888
MEAN_MOTION    = 15.62085418
ECCENTRICITY   = .00151516
INCLINATION    = 97.7283
RA_OF_ASC_NODE = 111.4359
ARG_OF_PERICENTER = 30.0420
MEAN_ANOMALY   = 330.1703

EPHEMERIS_TYPE = 0
CLASSIFICATION_TYPE = U
NORAD_CAT_ID   = 28222
ELEMENT_SET_NO = 999
REV_AT_EPOCH   = 20105
BSTAR          = .64219555E-3
MEAN_MOTION_DOT = .56674E-3
MEAN_MOTION_DDOT = 0

CCSDS_OMM_VERS = 2.0
CREATION_DATE  = 
ORIGINATOR     = 

OBJECT_NAME    = SL-16 R/B
OBJECT_ID      = 2004-021B
CENTER_NAME    = EARTH
REF_FRAME      = TEME
TIME_SYSTEM    = UTC
MEAN_ELEMENT_THEORY = SGP/SGP4

EPOCH          = 2026-02-17T02:12:12.605184
MEAN_MOTION    = 14.14594858
ECCENTRICITY   = .00032219
INCLINATION    = 70.9989
RA_OF_ASC_NODE = 275.7212
ARG_OF_PERICENTER = 59.4851
MEAN_ANOMALY   = 300.6589

EPHEMERIS_TYPE = 0
CLASSIFICATION_TYPE = U
NORAD_CAT_ID   = 28353
ELEMENT_SET_NO = 999
REV_AT_EPOCH   = 11992
BSTAR          = .20367576E-3
MEAN_MOTION_DOT = .344E-5
MEAN_MOTION_DDOT = 0

CCSDS_OMM_VERS = 2.0
CREATION_DATE  = 
ORIGINATOR     = 

OBJECT_NAME    = CZ-4B R/B
OBJECT_ID      = 2004-035C
CENTER_NAME    = EARTH
REF_FRAME      = TEME
TIME_SYSTEM    = UTC
MEAN_ELEMENT_THEORY = SGP/SGP4

EPOCH          = 2026-02-17T02:18:17.150112
MEAN_MOTION    = 15.28673871
ECCENTRICITY   = .00335178
INCLINATION    = 97.3529
RA_OF_ASC_NODE = 82.5885
ARG_OF_PERICENTER = 44.3625
MEAN_ANOMALY   = 316.0291

EPHEMERIS_TYPE = 0
CLASSIFICATION_TYPE = U
NORAD_CAT_ID   = 28415
ELEMENT_SET_NO = 999
REV_AT_EPOCH   = 17676
BSTAR          = .33646816E-3
MEAN_MOTION_DOT = .9466E-4
MEAN_MOTION_DDOT = 0

CCSDS_OMM_VERS = 2.0
CREATION_DATE  = 
ORIGINATOR     = 

OBJECT_NAME    = CZ-2C R/B
OBJECT_ID      = 2004-046B
CENTER_NAME    = EARTH
REF_FRAME      = TEME
TIME_SYSTEM    = UTC
MEAN_ELEMENT_THEORY = SGP/SGP4

EPOCH          = 2026-02-17T08:40:24.008736
MEAN_MOTION    = 14.26984754
ECCENTRICITY   = .0138634
INCLINATION    = 98.1995
RA_OF_ASC_NODE = 324.6086
ARG_OF_PERICENTER = 214.6064
MEAN_ANOMALY   = 144.6037

EPHEMERIS_TYPE = 0
CLASSIFICATION_TYPE = U
NORAD_CAT_ID   = 28480
ELEMENT_SET_NO = 999
REV_AT_EPOCH   = 10560
BSTAR          = .55981E-4
MEAN_MOTION_DOT = .109E-5
MEAN_MOTION_DDOT = 0

CCSDS_OMM_VERS = 2.0
CREATION_DATE  = 
ORIGINATOR     = 

OBJECT_NAME    = ARIANE 5 R/B
OBJECT_ID      = 2004-049H
CENTER_NAME    = EARTH
REF_FRAME      = TEME
TIME_SYSTEM    = UTC
MEAN_ELEMENT_THEORY = SGP/SGP4

EPOCH          = 2026-02-17T10:07:32.084832
MEAN_MOTION    = 14.85225370
ECCENTRICITY   = .0085252
INCLINATION    = 98.2593
RA_OF_ASC_NODE = 216.1250
ARG_OF_PERICENTER = 57.3020
MEAN_ANOMALY   = 303.6378

EPHEMERIS_TYPE = 0
CLASSIFICATION_TYPE = U
NORAD_CAT_ID   = 28499
ELEMENT_SET_NO = 999
REV_AT_EPOCH   = 14278
BSTAR          = .10731E-3
MEAN_MOTION_DOT = .918E-5
MEAN_MOTION_DDOT = 0

CCSDS_OMM_VERS = 2.0
CREATION_DATE  = 
ORIGINATOR     = 

OBJECT_NAME    = CZ-2D R/B
OBJECT_ID      = 2005-024B
CENTER_NAME    = EARTH
REF_FRAME      = TEME
TIME_SYSTEM    = UTC
MEAN_ELEMENT_THEORY = SGP/SGP4

EPOCH          = 2026-02-17T11:49:43.400352
MEAN_MOTION    = 15.58313966
ECCENTRICITY   = .0007674
INCLINATION    = 97.3605
RA_OF_ASC_NODE = 62.9275
ARG_OF_PERICENTER = 94.7551
MEAN_ANOMALY   = 265.4581

EPHEMERIS_TYPE = 0
CLASSIFICATION_TYPE = U
NORAD_CAT_ID   = 28738
ELEMENT_SET_NO = 999
REV_AT_EPOCH   = 13663
BSTAR          = .53451E-3
MEAN_MOTION_DOT = .40594E-3
MEAN_MOTION_DDOT = 0

